1 41914U 17002B   26191.25987223  .00009581  00000-0  22539-3 0  9993
2 41914  97.1950 198.0270 0008031  92.4404 267.7763 15.42147239525417
1 41948U 17008A   26191.27667068  .00000915  00000-0  46614-4 0  9993
2 41948  97.4098 250.1496 0005661 152.3951 207.7586 15.19259457521085
1 42767U 17036C   26191.29434436  .00001601  00000-0  79216-4 0  9994
2 42767  97.4268 250.7141 0002824 208.1436 151.9647 15.19230900501654
1 42794U 17036AF  26190.65392469  .00005338  00000-0  24799-3 0  9998
2 42794  97.5567 169.5114 0083150  84.1363 276.9341 15.17339053494260
1 42803U 17039A   26191.33373856  .00000017  00000-0 -11455-5 0  9994
2 42803  86.3990 312.5038 0002193  91.1544 268.9903 14.34217385474500
1 42828U 17042D   26191.29920859  .00007495  00000-0  32738-3 0  9992
2 42828  97.4049   4.3816 0008586 337.0808  23.0044 15.22370229491254
1 42829U 17042E   26191.25337010  .00002611  00000-0  18714-3 0  9993
2 42829  97.4302 348.0375 0017857  19.2762 340.9137 15.05091341490174
1 42831U 17042G   26191.31458238  .00002206  00000-0  17530-3 0  9994
2 42831  97.4787 345.9737 0019866  47.9662 312.3249 15.01291877489921
1 42835U 17042L   26190.87878137  .00000957  00000-0  77658-4 0  9991
2 42835  97.4827 346.1911 0011496  81.2455 279.0072 15.01851974489911
1 42837U 17042N   26190.49536315  .00011532  00000-0  37497-3 0  9997
2 42837  97.3831  11.0293 0007136 283.6729  76.3718 15.32031511491803
1 42840U 17042R   26190.76592409  .00012826  00000-0  43013-3 0  9995
2 42840  97.3780   9.2029 0006413 351.0661   9.0465 15.31011310491668
1 42846U 17042X   26190.71355477  .00002155  00000-0  14986-3 0  9999
2 42846  97.4091 351.1919 0013895  40.9384 319.2885 15.06439542490456
1 42847U 17042Y   26189.90867860  .00001898  00000-0  13199-3 0  9991
2 42847  97.4123 351.2462 0012254  22.1714 338.0041 15.06600810490365
1 42954U 17060A   26191.29043601  .00000520  00000-0  73038-4 0  9994
2 42954  97.6507 227.9760 0017883  29.2064 331.0145 14.81233463471872
1 43005U 17070A   26191.31094622  .00000765  00000-0  11545-3 0  9990
2 43005  97.9549 263.3231 0001196  93.0670 267.0677 14.77100488467393
1 43010U 17072A   26191.33352627  .00000523  00000-0  26907-3 0  9992
2 43010  99.0139 166.1754 0001792  24.3365 335.7895 14.19745759448270
1 43013U 17073A   26191.26180646  .00000002  00000-0  21984-4 0  9991
2 43013  98.7774 130.5199 0001197 129.2304 230.8978 14.19515837447749
1 43016U 17073D   26189.72816002  .00013683  00000-0  36375-3 0  9992
2 43016  97.4597  72.4218 0105067 195.3224 164.4830 15.32839065469766
1 43017U 17073E   26190.43146441  .00005081  00000-0  22300-3 0  9992
2 43017  97.4687  57.1929 0148037 251.5831 106.9257 15.13014553468757
1 43022U 17074A   26191.30680832  .00009834  00000-0  22472-3 0  9993
2 43022  97.4867 301.5468 0005199 112.8423 247.3374 15.43046533477839
1 43023U 17074B   26191.27745684  .00006269  00000-0  19152-3 0  9997
2 43023  97.4873 297.7507 0006199 138.3101 221.8615 15.34237619477544
1 43024U 17074C   26191.31768603  .00003967  00000-0  12314-3 0  9994
2 43024  97.4799 294.7704 0007745 148.7487 211.4218 15.33961201477384
1 43072U 17083C   26190.75021686  .00000168  00000-0  53059-4 0  9999
2 43072  86.3982 312.5688 0002386  99.5500 260.5966 14.34219889447406
1 43073U 17083D   26191.27665859  .00000152  00000-0  47122-4 0  9991
2 43073  86.3991 312.6264 0002165 101.1268 259.0172 14.34216740447421
1 43080U 17084A   26191.29952200  .00004124  00000-0  15991-3 0  9992
2 43080  97.1190 230.0174 0003316 128.8026 231.3510 15.26647964475215
1 43099U 18002A   26191.30278441  .00013607  00000-0  32879-3 0  9993
2 43099  97.3130 276.1159 0047189  98.2279 262.4323 15.40096570471929
1 43111U 18004A   26191.26108508  .00001082  00000-0  54612-4 0  9995
2 43111  97.4777 250.6688 0002383 146.3595 213.7791 15.19243927470832
1 43146U 18006A   26191.31911615  .00006928  00000-0  20213-3 0  9995
2 43146  97.6631 352.8063 0002541 198.9647 161.1502 15.35683415472263
1 43152U 18007A   26191.25642402  .00005996  00000-0  26251-3 0  9993
2 43152  97.3974 197.8228 0001984  94.0652 266.0811 15.22400797470924
